{"type": "FeatureCollection", "features": [ {"type": "Feature", "properties": {"norad_id": 37478, "name": "FENGYUN 1C DEB", "group": "fengyun-1c-debris", "lat": 76.36560463249948, "lon": -156.62927956797193, "alt_km": 1645.4780875037295, "timestamp": "2025-12-23T11:34:48.451657+00:00", "meta": {"OBJECT_NAME": "FENGYUN 1C DEB", "OBJECT_ID": "1999-025EJY", "EPOCH": "2025-12-14T05:55:23.732544", "MEAN_MOTION": 13.02983973, "ECCENTRICITY": 0.05482188, "INCLINATION": 99.6498, "RA_OF_ASC_NODE": 330.5496, "ARG_OF_PERICENTER": 315.7365, "MEAN_ANOMALY": 40.1108, "EPHEMERIS_TYPE": 0, "CLASSIFICATION_TYPE": "U", "NORAD_CAT_ID": 37478, "ELEMENT_SET_NO": 999, "REV_AT_EPOCH": 56581, "BSTAR": 0.0055489953, "MEAN_MOTION_DOT": 3.525e-05, "MEAN_MOTION_DDOT": 0}, "tle": {"line1": "1 37478U 99025EJY 25348.24680246  .00003525  00000+0  55490-2 0  9997", "line2": "2 37478  99.6498 330.5496 0548218 315.7365  40.1108 13.02983973565818"}}, "geometry": {"type": "Point", "coordinates": [-156.62927956797193, 76.36560463249948]}}, {"type": "Feature", "properties": {"norad_id": 37589, "name": "FENGYUN 1C DEB", "group": "fengyun-1c-debris", "lat": 49.634216715087256, "lon": 90.9840051604614, "alt_km": 881.2256922406405, "timestamp": "2025-12-23T11:34:48.451666+00:00", "meta": {"OBJECT_NAME": "FENGYUN 1C DEB", "OBJECT_ID": "1999-025EKH", "EPOCH": "2025-12-22T12:47:20.482944", "MEAN_MOTION": 14.08264276, "ECCENTRICITY": 0.011723, "INCLINATION": 99.0749, "RA_OF_ASC_NODE": 259.1917, "ARG_OF_PERICENTER": 236.7185, "MEAN_ANOMALY": 122.271, "EPHEMERIS_TYPE": 0, "CLASSIFICATION_TYPE": "U", "NORAD_CAT_ID": 37589, "ELEMENT_SET_NO": 999, "REV_AT_EPOCH": 82722, "BSTAR": 0.0028934, "MEAN_MOTION_DOT": 5.223e-05, "MEAN_MOTION_DDOT": 0}, "tle": {"line1": "1 37589U 99025EKH 25356.53287596  .00005223  00000+0  28934-2 0  9992", "line2": "2 37589  99.0749 259.1917 0117230 236.7185 122.2710 14.08264276827228"}}, "geometry": {"type": "Point", "coordinates": [90.9840051604614, 49.634216715087256]}}, {"type": "Feature", "properties": {"norad_id": 37594, "name": "FENGYUN 1C DEB", "group": "fengyun-1c-debris", "lat": 76.78714695497783, "lon": -14.377556131837448, "alt_km": 905.6460716741467, "timestamp": "2025-12-23T11:34:48.451680+00:00", "meta": {"OBJECT_NAME": "FENGYUN 1C DEB", "OBJECT_ID": "1999-025EKN", "EPOCH": "2025-12-17T08:50:53.140704", "MEAN_MOTION": 14.11122506, "ECCENTRICITY": 0.00850392, "INCLINATION": 98.7342, "RA_OF_ASC_NODE": 20.5782, "ARG_OF_PERICENTER": 256.4735, "MEAN_ANOMALY": 102.6951, "EPHEMERIS_TYPE": 0, "CLASSIFICATION_TYPE": "U", "NORAD_CAT_ID": 37594, "ELEMENT_SET_NO": 999, "REV_AT_EPOCH": 77827, "BSTAR": 0.00026135684, "MEAN_MOTION_DOT": 4.43e-06, "MEAN_MOTION_DDOT": 0}, "tle": {"line1": "1 37594U 99025EKN 25351.36867061  .00000443  00000+0  26136-3 0  9997", "line2": "2 37594  98.7342  20.5782 0085039 256.4735 102.6951 14.11122506778272"}}, "geometry": {"type": "Point", "coordinates": [-14.377556131837448, 76.78714695497783]}}, {"type": "Feature", "properties": {"norad_id": 37595, "name": "FENGYUN 1C DEB", "group": "fengyun-1c-debris", "lat": -10.654561529304717, "lon": 26.24570341889288, "alt_km": 676.3765257301284, "timestamp": "2025-12-23T11:34:48.451690+00:00", "meta": {"OBJECT_NAME": "FENGYUN 1C DEB", "OBJECT_ID": "1999-025EKP", "EPOCH": "2025-12-19T20:17:37.284288", "MEAN_MOTION": 14.71383001, "ECCENTRICITY": 0.00286871, "INCLINATION": 99.0453, "RA_OF_ASC_NODE": 203.926, "ARG_OF_PERICENTER": 343.5826, "MEAN_ANOMALY": 33.1316, "EPHEMERIS_TYPE": 0, "CLASSIFICATION_TYPE": "U", "NORAD_CAT_ID": 37595, "ELEMENT_SET_NO": 999, "REV_AT_EPOCH": 62710, "BSTAR": 0.0022288021, "MEAN_MOTION_DOT": 0.00013847, "MEAN_MOTION_DDOT": 0}, "tle": {"line1": "1 37595U 99025EKP 25353.84557042  .00013847  00000+0  22288-2 0  9993", "line2": "2 37595  99.0453 203.9260 0028687 343.5826  33.1316 14.71383001627106"}}, "geometry": {"type": "Point", "coordinates": [26.24570341889288, -10.654561529304717]}}, {"type": "Feature", "properties": {"norad_id": 37600, "name": "FENGYUN 1C DEB", "group": "fengyun-1c-debris", "lat": -56.46230198001789, "lon": -40.069117662547406, "alt_km": 1166.997178005936, "timestamp": "2025-12-23T11:34:48.451699+00:00", "meta": {"OBJECT_NAME": "FENGYUN 1C DEB", "OBJECT_ID": "1999-025EKU", "EPOCH": "2025-12-21T16:44:55.269888", "MEAN_MOTION": 13.82620131, "ECCENTRICITY": 0.03567199, "INCLINATION": 98.9342, "RA_OF_ASC_NODE": 151.9626, "ARG_OF_PERICENTER": 25.2746, "MEAN_ANOMALY": 336.5397, "EPHEMERIS_TYPE": 0, "CLASSIFICATION_TYPE": "U", "NORAD_CAT_ID": 37600, "ELEMENT_SET_NO": 999, "REV_AT_EPOCH": 88611, "BSTAR": 0.0021018419, "MEAN_MOTION_DOT": 3.679e-05, "MEAN_MOTION_DDOT": 0}, "tle": {"line1": "1 37600U 99025EKU 25355.69786192  .00003679  00000+0  21018-2 0  9997", "line2": "2 37600  98.9342 151.9626 0356719  25.2746 336.5397 13.82620131886117"}}, "geometry": {"type": "Point", "coordinates": [-40.069117662547406, -56.46230198001789]}}, {"type": "Feature", "properties": {"norad_id": 37683, "name": "FENGYUN 1C DEB", "group": "fengyun-1c-debris", "lat": 47.74959206994264, "lon": -93.93618541648361, "alt_km": 833.193001607141, "timestamp": "2025-12-23T11:34:48.451710+00:00", "meta": {"OBJECT_NAME": "FENGYUN 1C DEB", "OBJECT_ID": "1999-025EKY", "EPOCH": "2025-12-22T12:45:28.700352", "MEAN_MOTION": 13.31943553, "ECCENTRICITY": 0.05857029, "INCLINATION": 98.0031, "RA_OF_ASC_NODE": 274.2271, "ARG_OF_PERICENTER": 100.084, "MEAN_ANOMALY": 76.0427, "EPHEMERIS_TYPE": 0, "CLASSIFICATION_TYPE": "U", "NORAD_CAT_ID": 37683, "ELEMENT_SET_NO": 999, "REV_AT_EPOCH": 29370, "BSTAR": 0.0017018804, "MEAN_MOTION_DOT": 2.128e-05, "MEAN_MOTION_DDOT": 0}, "tle": {"line1": "1 37683U 99025EKY 25356.53158218  .00002128  00000+0  17019-2 0  9998", "line2": "2 37683  98.0031 274.2271 0585702 100.0840  76.0427 13.31943553293709"}}, "geometry": {"type": "Point", "coordinates": [-93.93618541648361, 47.74959206994264]}}, {"type": "Feature", "properties": {"norad_id": 37686, "name": "FENGYUN 1C DEB", "group": "fengyun-1c-debris", "lat": -24.945096250586204, "lon": -169.55322844377423, "alt_km": 1424.7407337542236, "timestamp": "2025-12-23T11:34:48.451720+00:00", "meta": {"OBJECT_NAME": "FENGYUN 1C DEB", "OBJECT_ID": "1999-025ELB", "EPOCH": "2025-12-15T20:02:19.291200", "MEAN_MOTION": 13.35366399, "ECCENTRICITY": 0.03959537, "INCLINATION": 99.0216, "RA_OF_ASC_NODE": 7.9106, "ARG_OF_PERICENTER": 34.5937, "MEAN_ANOMALY": 145.9696, "EPHEMERIS_TYPE": 0, "CLASSIFICATION_TYPE": "U", "NORAD_CAT_ID": 37686, "ELEMENT_SET_NO": 999, "REV_AT_EPOCH": 60668, "BSTAR": 0.00056833835, "MEAN_MOTION_DOT": 4.14e-06, "MEAN_MOTION_DDOT": 0}, "tle": {"line1": "1 37686U 99025ELB 25349.83494550  .00000414  00000+0  56834-3 0  9993", "line2": "2 37686  99.0216   7.9106 0395953  34.5937 145.9696 13.35366399606681"}}, "geometry": {"type": "Point", "coordinates": [-169.55322844377423, -24.945096250586204]}}, {"type": "Feature", "properties": {"norad_id": 37687, "name": "FENGYUN 1C DEB", "group": "fengyun-1c-debris", "lat": 30.0328299148111, "lon": 26.513390420882786, "alt_km": 820.3256369942801, "timestamp": "2025-12-23T11:34:48.451729+00:00", "meta": {"OBJECT_NAME": "FENGYUN 1C DEB", "OBJECT_ID": "1999-025ELC", "EPOCH": "2025-12-20T21:38:24.171360", "MEAN_MOTION": 13.85399674, "ECCENTRICITY": 0.0333437, "INCLINATION": 98.2039, "RA_OF_ASC_NODE": 29.0329, "ARG_OF_PERICENTER": 336.128, "MEAN_ANOMALY": 146.3028, "EPHEMERIS_TYPE": 0, "CLASSIFICATION_TYPE": "U", "NORAD_CAT_ID": 37687, "ELEMENT_SET_NO": 999, "REV_AT_EPOCH": 83367, "BSTAR": 0.0022813, "MEAN_MOTION_DOT": 3.975e-05, "MEAN_MOTION_DDOT": 0}, "tle": {"line1": "1 37687U 99025ELC 25354.90166865  .00003975  00000+0  22813-2 0  9997", "line2": "2 37687  98.2039  29.0329 0333437 336.1280 146.3028 13.85399674833671"}}, "geometry": {"type": "Point", "coordinates": [26.513390420882786, 30.0328299148111]}}, {"type": "Feature", "properties": {"norad_id": 37689, "name": "FENGYUN 1C DEB", "group": "fengyun-1c-debris", "lat": -17.1882134096676, "lon": 41.78866233883657, "alt_km": 744.9100371616751, "timestamp": "2025-12-23T11:34:48.451738+00:00", "meta": {"OBJECT_NAME": "FENGYUN 1C DEB", "OBJECT_ID": "1999-025ELE", "EPOCH": "2025-12-16T22:11:39.439392", "MEAN_MOTION": 14.48718217, "ECCENTRICITY": 0.00208957, "INCLINATION": 98.9198, "RA_OF_ASC_NODE": 32.0803, "ARG_OF_PERICENTER": 227.3129, "MEAN_ANOMALY": 132.6303, "EPHEMERIS_TYPE": 0, "CLASSIFICATION_TYPE": "U", "NORAD_CAT_ID": 37689, "ELEMENT_SET_NO": 999, "REV_AT_EPOCH": 57873, "BSTAR": 0.0018942734, "MEAN_MOTION_DOT": 7.118e-05, "MEAN_MOTION_DDOT": 0}, "tle": {"line1": "1 37689U 99025ELE 25350.92476203  .00007118  00000+0  18943-2 0  9999", "line2": "2 37689  98.9198  32.0803 0020895 227.3129 132.6303 14.48718217578736"}}, "geometry": {"type": "Point", "coordinates": [41.78866233883657, -17.1882134096676]}}, {"type": "Feature", "properties": {"norad_id": 37691, "name": "FENGYUN 1C DEB", "group": "fengyun-1c-debris", "lat": 59.460212920851816, "lon": -113.20876736694147, "alt_km": 580.1243327495549, "timestamp": "2025-12-23T11:34:48.451746+00:00", "meta": {"OBJECT_NAME": "FENGYUN 1C DEB", "OBJECT_ID": "1999-025ELG", "EPOCH": "2025-12-21T11:32:02.695200", "MEAN_MOTION": 14.57828079, "ECCENTRICITY": 0.02804596, "INCLINATION": 98.3729, "RA_OF_ASC_NODE": 259.23, "ARG_OF_PERICENTER": 122.9846, "MEAN_ANOMALY": 239.8647, "EPHEMERIS_TYPE": 0, "CLASSIFICATION_TYPE": "U", "NORAD_CAT_ID": 37691, "ELEMENT_SET_NO": 999, "REV_AT_EPOCH": 85761, "BSTAR": 0.0012109089, "MEAN_MOTION_DOT": 9.521e-05, "MEAN_MOTION_DDOT": 0}, "tle": {"line1": "1 37691U 99025ELG 25355.48058675  .00009521  00000+0  12109-2 0  9995", "line2": "2 37691  98.3729 259.2300 0280459 122.9846 239.8647 14.57828079857614"}}, "geometry": {"type": "Point", "coordinates": [-113.20876736694147, 59.460212920851816]}}]}